STARLINK-1578
1 26082C 20055BH  21325.16683644  .00001122  00000-0  75149-4 0  3252
2 26082  53.0531 302.4815 0001721  66.0791 235.4729 15.06404580    18
